[{"OBJECT_NAME":"NUSAT-48 (HENRIETTA LEAVITT)","OBJECT_ID":"2024-149AG","EPOCH":"2026-03-09T19:19:17.269536","MEAN_MOTION":15.29812597,"ECCENTRICITY":0.00027538,"INCLINATION":97.3923,"RA_OF_ASC_NODE":150.8264,"ARG_OF_PERICENTER":263.3026,"MEAN_ANOMALY":96.7901,"EPHEMERIS_TYPE":0,"CLASSIFICATION_TYPE":"U","NORAD_CAT_ID":60498,"ELEMENT_SET_NO":999,"REV_AT_EPOCH":8694,"BSTAR":0.00045211745,"MEAN_MOTION_DOT":0.00012988,"MEAN_MOTION_DDOT":0},{"OBJECT_NAME":"STARLINK-36083","OBJECT_ID":"2025-281K","EPOCH":"2026-03-09T04:13:09.355872","MEAN_MOTION":15.27607923,"ECCENTRICITY":0.00012776,"INCLINATION":43.0038,"RA_OF_ASC_NODE":346.6606,"ARG_OF_PERICENTER":277.807,"MEAN_ANOMALY":82.2637,"EPHEMERIS_TYPE":0,"CLASSIFICATION_TYPE":"U","NORAD_CAT_ID":66857,"ELEMENT_SET_NO":999,"REV_AT_EPOCH":1610,"BSTAR":0.0012797401,"MEAN_MOTION_DOT":0.00035151,"MEAN_MOTION_DDOT":0}]
